      2.10          N: GNSS NAV DATA                        RINEX VERSION / TYPE
fic2rin                                 08/03/2024 00:59:02 PGM / RUN BY / DATE
                                                            END OF HEADER
21 24  8  2 14  0  0.0  .105275772512D-03 -.216004991671D-11  .000000000000D+00
     .460000000000D+02  .989375000000D+02  .475341228442D-08 -.160352049345D+01
     .511109828949D-05  .252772795502D-01  .374577939510D-05  .515366481590D+04
     .482400000000D+06 -.394880771637D-06  .799765260953D+00 -.342726707458D-06
     .961488383748D+00  .317656250000D+03 -.540058901747D+00 -.841606484860D-08
     .457161899771D-09  .100000000000D+01  .232500000000D+04  .000000000000D+00
     .240000000000D+01  .000000000000D+00 -.102445483208D-07  .460000000000D+02
     .475200000000D+06  .400000000000D+01
15 24  8  2 14  0  0.0  .188042875379D-03  .432009983342D-11  .000000000000D+00
     .710000000000D+02 -.122968750000D+03  .452697428094D-08 -.239774504288D+01
    -.624172389507D-05  .159509875812D-01  .935047864914D-05  .515369532776D+04
     .482400000000D+06  .197440385818D-06  .283209437075D+01  .558793544769D-08
     .936435989175D+00  .182781250000D+03  .133395717363D+01 -.768782022857D-08
     .853606984729D-10  .100000000000D+01  .232500000000D+04  .000000000000D+00
     .240000000000D+01  .000000000000D+00 -.102445483208D-07  .710000000000D+02
     .475200000000D+06  .400000000000D+01
8  24  8  2 14  0  0.0  .299810431898D-03  .152340362547D-10  .000000000000D+00
     .950000000000D+02  .811562500000D+02  .446518599292D-08 -.142468650880D+01
     .398233532906D-05  .953181169461D-02  .982917845249D-05  .515366722870D+04
     .482400000000D+06  .119209289551D-06 -.190392703740D+00 -.154599547386D-06
     .952435971021D+00  .182593750000D+03  .367760194940D+00 -.779996775711D-08
    -.907180644858D-10  .100000000000D+01  .232500000000D+04  .000000000000D+00
     .340000000000D+01  .000000000000D+00  .465661287308D-08  .950000000000D+02
     .475200000000D+06  .400000000000D+01
4  24  8  2 14  0  0.0  .416209921241D-03  .761701812735D-11  .000000000000D+00
     .204000000000D+03 -.825312500000D+02  .393159233803D-08 -.175367851298D+01
    -.431947410107D-05  .291636062320D-02  .111628323793D-04  .515372733498D+04
     .482400000000D+06 -.119209289551D-06  .302166860401D+01 -.298023223877D-07
     .965872509313D+00  .166312500000D+03 -.298328923639D+01 -.755960060199D-08
     .210008747707D-09  .100000000000D+01  .232500000000D+04  .000000000000D+00
     .240000000000D+01  .000000000000D+00 -.465661287308D-08  .716000000000D+03
     .475200000000D+06  .400000000000D+01
19 24  8  2 14  0  0.0  .519063323736D-03  .522959453519D-11  .000000000000D+00
     .400000000000D+02  .100250000000D+03  .420624663563D-08  .479046443259D+00
     .518560409546D-05  .100037179654D-01  .100564211607D-04  .515372847939D+04
     .482400000000D+06  .894069671631D-07 -.504321931376D-01 -.145286321640D-06
     .967472469169D+00  .189500000000D+03  .261122456300D+01 -.782675458717D-08
    -.735744932444D-10  .100000000000D+01  .232500000000D+04  .000000000000D+00
     .340000000000D+01  .000000000000D+00 -.153668224812D-07  .400000000000D+02
     .475200000000D+06  .400000000000D+01
10 24  8  2 14  0  0.0 -.826013274491D-04 -.105728759081D-10  .000000000000D+00
     .119000000000D+03 -.882187500000D+02  .418981737985D-08  .546313792322D+00
    -.446662306786D-05  .947433430701D-02  .241771340370D-05  .515369040680D+04
     .482400000000D+06 -.149011611938D-07  .194115129953D+01  .596046447754D-07
     .984850750987D+00  .343968750000D+03 -.237823505536D+01 -.824820071352D-08
    -.378944355982D-09  .100000000000D+01  .232500000000D+04  .000000000000D+00
     .340000000000D+01  .000000000000D+00  .232830643654D-08  .119000000000D+03
     .475200000000D+06  .400000000000D+01
9  24  8  2 14  0  0.0  .297861639410D-03  .153477230924D-10  .000000000000D+00
     .740000000000D+02 -.907812500000D+02  .417481675502D-08 -.932340099433D+00
    -.474788248539D-05  .294120376930D-02  .107549130917D-04  .515362904930D+04
     .482400000000D+06 -.558793544769D-07  .296165620363D+01  .577419996262D-07
     .959508764466D+00  .169406250000D+03  .196680895159D+01 -.777568103118D-08
     .171078554680D-09  .100000000000D+01  .232500000000D+04  .000000000000D+00
     .240000000000D+01  .000000000000D+00  .931322574615D-09  .740000000000D+02
     .475200000000D+06  .400000000000D+01
31 24  8  2 14  0  0.0 -.226250384003D-03  .341060513165D-12  .000000000000D+00
     .103000000000D+03  .218437500000D+02  .475734101949D-08  .106562681579D+01
     .134855508804D-05  .105271971552D-01  .714138150215D-05  .515375542450D+04
     .482400000000D+06 -.162050127983D-06 -.222768521516D+01  .502914190292D-07
     .954174633066D+00  .242312500000D+03  .701052995408D+00 -.811105214359D-08
     .329656588663D-09  .100000000000D+01  .232500000000D+04  .000000000000D+00
     .240000000000D+01  .000000000000D+00 -.135041773319D-07  .103000000000D+03
     .475200000000D+06  .400000000000D+01
29 24  8  2 14  0  0.0 -.586324837059D-03  .204636307899D-11  .000000000000D+00
     .590000000000D+02  .911562500000D+02  .406409785742D-08 -.146050389139D+01
     .450387597084D-05  .302777450997D-02  .108890235424D-04  .515356374359D+04
     .482400000000D+06 -.204890966415D-07 -.795273150090D-01 -.242143869400D-07
     .970716320311D+00  .179562500000D+03  .263933190796D+01 -.767317676147D-08
    -.803604901941D-10  .100000000000D+01  .232500000000D+04  .000000000000D+00
     .240000000000D+01  .000000000000D+00 -.977888703346D-08  .590000000000D+02
     .475200000000D+06  .400000000000D+01
32 24  8  2 14  0  0.0 -.608552712947D-03  .250111042988D-11  .000000000000D+00
     .570000000000D+02 -.846250000000D+02  .416517349619D-08 -.715105992749D+00
    -.451505184174D-05  .779197434895D-02  .998564064503D-05  .515371520996D+04
     .482400000000D+06  .428408384323D-07  .297653316618D+01  .150874257088D-06
     .962892213103D+00  .190468750000D+03 -.213191776421D+01 -.787068498848D-08
     .453590322429D-10  .100000000000D+01  .232500000000D+04  .000000000000D+00
     .240000000000D+01  .000000000000D+00  .931322574615D-09  .570000000000D+02
     .475200000000D+06  .400000000000D+01
30 24  8  2 14  0  0.0 -.347096007317D-03  .670752342558D-11  .000000000000D+00
     .750000000000D+02  .160000000000D+02  .522164607395D-08  .186111796408D+01
     .771135091782D-06  .718570558820D-02  .690110027790D-05  .515359609222D+04
     .482400000000D+06 -.121071934700D-06 -.224988817594D+01 -.186264514923D-07
     .935384600192D+00  .235281250000D+03 -.244557055446D+01 -.822927135361D-08
     .398230873629D-09  .100000000000D+01  .232500000000D+04  .000000000000D+00
     .240000000000D+01  .000000000000D+00  .419095158577D-08  .750000000000D+02
     .475200000000D+06  .400000000000D+01
17 24  8  2 14  0  0.0  .664268620312D-03 -.875388650456D-11  .000000000000D+00
     .670000000000D+02  .111250000000D+03  .407802700905D-08 -.147448101156D+01
     .596977770329D-05  .134343450190D-01  .103078782558D-04  .515378178024D+04
     .482400000000D+06 -.249594449997D-06 -.946814741949D-01  .244006514549D-06
     .968259579075D+00  .191593750000D+03 -.131304281986D+01 -.773460789175D-08
    -.119647840956D-09  .100000000000D+01  .232500000000D+04  .000000000000D+00
     .240000000000D+01  .000000000000D+00 -.111758708954D-07  .670000000000D+02
     .475200000000D+06  .400000000000D+01
13 24  8  2 14  0  0.0  .668401829898D-03  .227373675443D-11  .000000000000D+00
     .710000000000D+02 -.822812500000D+02  .379087219076D-08 -.171081153883D+01
    -.423938035965D-05  .840932119172D-02  .107791274786D-04  .515366204262D+04
     .482400000000D+06  .189989805222D-06  .312849732777D+01 -.558793544769D-07
     .972333785445D+00  .178250000000D+03  .941507384876D+00 -.740745140723D-08
     .239652839646D-09  .100000000000D+01  .232500000000D+04  .000000000000D+00
     .240000000000D+01  .000000000000D+00 -.111758708954D-07  .710000000000D+02
     .475200000000D+06  .400000000000D+01
14 24  8  2 14  0  0.0  .463161151856D-03  .875388650456D-11  .000000000000D+00
     .300000000000D+02 -.625000000000D+01  .503485257896D-08  .120053049112D+01
    -.394880771637D-06  .477545592003D-02  .657327473164D-05  .515369094467D+04
     .482400000000D+06 -.353902578354D-07 -.117876186633D+01  .689178705215D-07
     .944904339173D+00  .244593750000D+03 -.286524973544D+01 -.812533845296D-08
    -.431803700643D-09  .100000000000D+01  .232500000000D+04  .000000000000D+00
     .240000000000D+01  .000000000000D+00 -.791624188423D-08  .286000000000D+03
     .475200000000D+06  .400000000000D+01
28 24  8  2 14  0  0.0 -.356534961611D-03 -.153477230924D-10  .000000000000D+00
     .137000000000D+03  .170937500000D+02  .456876173584D-08  .850202438253D+00
     .888481736183D-06  .310158240609D-03  .736117362976D-05  .515368633270D+04
     .482400000000D+06  .186264514923D-07 -.228179096091D+01 -.540167093277D-07
     .961350626604D+00  .240281250000D+03  .145726276713D+01 -.792640159501D-08
     .463590738987D-09  .100000000000D+01  .232500000000D+04  .000000000000D+00
     .240000000000D+01  .000000000000D+00 -.931322574615D-08  .649000000000D+03
     .475200000000D+06  .400000000000D+01
18 24  8  2 14  0  0.0 -.642610713840D-03 -.352429196937D-11  .000000000000D+00
     .790000000000D+02  .107218750000D+03  .439946896983D-08  .290238041909D+01
     .562891364098D-05  .445374927949D-02  .293552875519D-05  .515360475159D+04
     .482400000000D+06 -.108033418655D-06  .910256972131D+00 -.372529029846D-08
     .974494528614D+00  .332125000000D+03 -.303348852712D+01 -.807212195057D-08
     .286440502825D-09  .100000000000D+01  .232500000000D+04  .000000000000D+00
     .240000000000D+01  .000000000000D+00 -.838190317154D-08  .591000000000D+03
     .475200000000D+06  .400000000000D+01
